{"type":"FeatureCollection","features":[{"type":"Feature","geometry":{"type":"Point","coordinates":[2.3572067,42.4455915]},"properties":{"name":"Refuge Da Silva","tourism":"alpine_hut","id":412523370}},{"type":"Feature","geometry":{"type":"Point","coordinates":[0.0122122,42.7198854]},"properties":{"capacity":"54","ele":"2027","name":"Refuge des Espuguettes","operator":"Parc National des Pyrénées","tourism":"alpine_hut","website":"https://www.pyrenees-refuges.com/fr/affiche.php?numenr=125","id":474976108}},{"type":"Feature","geometry":{"type":"Point","coordinates":[0.4199078,42.7226795]},"properties":{"ele":"1690","name":"Refuge de la Soula","tourism":"alpine_hut","wikidata":"Q3423212","id":482739672}},{"type":"Feature","geometry":{"type":"Point","coordinates":[0.3772539,42.6607059]},"properties":{"addr:city":"Gistaín","addr:postcode":"22367","addr:street":"Valle de Gistaín","description":"El Refugio de Viadós o Biadós es un refugio guardado que se encuentra en 1.760 m de altitud en la comarca de Sobrarbe, y situado en el Valle de Gistau, al margen derecho del barranco de los Oriel, encima del campamento Virgen Blanca.","ele":"1760","email":"refugio@viados.es","name":"Refugio de Biadós / Viadós","name:fr":"Refuge de Viados","telephone":"+34  974 341 613;+34 669 230 078","tourism":"alpine_hut","website":"http://www.viados.es/","id":482739674}},{"type":"Feature","geometry":{"type":"Point","coordinates":[0.8546611,42.6347174]},"properties":{"capacity":"80","ele":"2010","name":"Refugi de la Restanca","name:fr":"Refuge de la Restanque","phone":"(+34) 608036559","tourism":"alpine_hut","website":"http://restanca.com","wikidata":"Q11945099","wikipedia":"ca:Refugi de la Restanca","id":484375027}},{"type":"Feature","geometry":{"type":"Point","coordinates":[2.4901795,42.5506229]},"properties":{"name":"La Mouline","tourism":"alpine_hut","id":519720623}},{"type":"Feature","geometry":{"type":"Point","coordinates":[2.4077997,42.5016914]},"properties":{"name":"Mariailles","note":"217","source":"Association \"Refuges et cabanes des Pyrénées\"","tourism":"alpine_hut","id":963677950}},{"type":"Feature","geometry":{"type":"Point","coordinates":[2.7488276,42.4209357]},"properties":{"beds":"12","ele":"1080","email":"secretaria@cee.cat","name":"Refugi de les Salines","operator":"Centre Excursionista Empordanès","phone":"+34 672 461 884","rooms":"1","tourism":"alpine_hut","website":"http://www.cee.cat/salines.php","id":1024048721}},{"type":"Feature","geometry":{"type":"Point","coordinates":[-1.2113494,43.0499]},"properties":{"name":"Organbideko etxola","tourism":"alpine_hut","id":2995484999}},{"type":"Feature","geometry":{"type":"Point","coordinates":[1.1072237,42.7257486]},"properties":{"addr:city":"Alós d ‘Isil Alt Aneu (Leida)","addr:postcode":"25586","addr:street":"Crta. De Bonabé s/n","description":"El refugio dispone de 24 camas repartidas en una habitación de 11 camas, dos habitaciones de 4 camas y un altillo con 5 colchones. En todas las habitaciones hay mantas y almohadas.","ele":"1374","name":"Refugi del Fornet","name:ca":"Refugi del Fornet","name:es":"Refugio del Fornet","note":"En la primera planta se encuentran la sala de estar, el bar y el restaurante. Ofrecemos desayunos y cenas para los pernoctantes y al mediodía ofrecemos especialidades de la casa a escoger de la carta y también carne a la brasa.","phone":"+34 973091156; +34 618146705; +34 618146706","tourism":"alpine_hut","website":"http://refugidelfornet.es","wikidata":"Q11945105","id":4288622187}},{"type":"Feature","geometry":{"type":"Point","coordinates":[1.218745,42.6779252]},"properties":{"ele":"1722","email":"info@refugipletadelprat.com","name":"Refugi de la Pleta del Prat","operator":"Ajuntament de Lladorre","tourism":"alpine_hut","website":"http://www.refugipletadelprat.com/","wikidata":"Q11945101","wikipedia":"ca:Refugi de la Pleta del Prat","id":4299695951}},{"type":"Feature","geometry":{"type":"Point","coordinates":[-0.6660394,42.9502946]},"properties":{"name":"Refuge de l'Abérouat","tourism":"alpine_hut","id":7425418126}},{"type":"Feature","geometry":{"type":"Point","coordinates":[2.0034661,42.5589801]},"properties":{"building":"yes","internet_access":"no","name":"Refuge des Bouillouses","note":"66","source":"Association \"Refuges et cabanes des Pyrénées\"","tourism":"alpine_hut","website":"http://www.pyrenees-refuges.com/fr/affiche.php?numenr=66","id":62439423}},{"type":"Feature","geometry":{"type":"Point","coordinates":[2.0211642,42.5278684]},"properties":{"building":"yes","source":"cadastre-dgi-fr source : Direction Générale des Impôts - Cadastre. Mise à jour : 2010","tourism":"alpine_hut","id":62515388}},{"type":"Feature","geometry":{"type":"Point","coordinates":[2.956993,42.4758826]},"properties":{"beds":"12","building":"hut","ele":"1052","name":"REFUGE DE TAGNARÈDE","name:ca":"Refugi de la Tanyareda","note":"306","operator":"Club Alpin Français","source":"Association \"Refuges et cabanes des Pyrénées\"","tourism":"alpine_hut","website":"http://refugelatagnarede.ffcam.fr/","id":65020811}},{"type":"Feature","geometry":{"type":"Point","coordinates":[-0.1947092,42.8200786]},"properties":{"building":"yes","name":"Refuge Wallon - Marcadau","operator":"Commission Syndicale de la Vallée de Saint-Savin","phone":"+33 5 62 92 64 28","source":"cadastre-dgi-fr source : Direction Générale des Impôts - Cadastre. Mise à jour : 2010","tourism":"alpine_hut","wikidata":"Q16510604","id":70176000}},{"type":"Feature","geometry":{"type":"Point","coordinates":[-0.1414317,42.7929081]},"properties":{"beds":"87","building":"yes","ele":"2151","name":"Refuge des Oulettes de Gaube","operator":"Club Alpin Français","phone":"+33 9 88 18 41 46","source":"cadastre-dgi-fr source : Direction Générale des Impôts - Cadastre. Mise à jour : 2010","tourism":"alpine_hut","website":"https://refugeoulettesdegaube.ffcam.fr/","id":70178402}},{"type":"Feature","geometry":{"type":"Point","coordinates":[-0.0226541,42.739436]},"properties":{"addr:city":"Gavarnie","addr:postcode":"65120","addr:street":"Route de Boucharo","beds":"62","building":"yes","ele":"1495","name":"Chalet La Grange de Holle","operator":"Club Alpin Français","phone":"+33 5 62 92 48 77","tourism":"alpine_hut","website":"https://chaletlagrangedeholle.ffcam.fr/","id":98660819}},{"type":"Feature","geometry":{"type":"Point","coordinates":[-0.2645178,42.8555439]},"properties":{"beds":"12","building":"yes","ele":"1884","name":"REFUGE DU BALAÏTOUS - LEDORMEUR","operator":"Club Alpin Français","tourism":"alpine_hut","website":"http://refugedubalaitous.ffcam.fr/","id":116021589}},{"type":"Feature","geometry":{"type":"Point","coordinates":[1.7156369,42.6073692]},"properties":{"amenity":"shelter","building":"yes","capacity":"43","ele":"2310","email":"refugidejuclar@gmail.com","mattress":"yes","name":"Refugi de Juclar","phone":"+376 678145","shelter":"yes","tourism":"alpine_hut","website":"http://www.refugidejuclar.com","wikidata":"Q3931662","wikipedia":"ca:Refugi de Juclar","winter_room":"6","id":127125424}},{"type":"Feature","geometry":{"type":"Point","coordinates":[1.4897605,42.665028]},"properties":{"beds":"37","building":"yes","ele":"2445","name":"Refuge du Fourcat","operator":"Club Alpin Français","phone":"+33 5 61 65 43 15","tourism":"alpine_hut","website":"http://refugeetangfourcat.ffcam.fr/","id":127287254}},{"type":"Feature","geometry":{"type":"Point","coordinates":[-0.532246,42.7961217]},"properties":{"building":"yes","ele":"1600","name":"Gîte Somport","source":"Bing;cadastre-dgi-fr source : Direction Générale des Impôts - Cadastre. Mise à jour : 2013","tourism":"alpine_hut","website":"http://www.lesomport.com/","id":154545803}},{"type":"Feature","geometry":{"type":"Point","coordinates":[-0.5317222,42.7874122]},"properties":{"beds":"48","building":"yes","contact:email":"refugiopepegarces@gmail.com","contact:fax":"+34 664012867","contact:phone":"+34 974372378","contact:website":"www.refugiopepegarces.com","ele":"1600","internet_access":"wlan","name":"Refugio Pepe Garces","operator":"private","tourism":"alpine_hut","id":155711964}},{"type":"Feature","geometry":{"type":"Point","coordinates":[-1.2273485,43.0323176]},"properties":{"amenity":"shelter","building":"yes","internet_access":"no","name":"Azpegiko Aterpea / Refugio de Azpegui","name:es":"Refugio de Azpegui","name:eu":"Azpegiko Aterpea","shelter_type":"weather_shelter","smoking":"no","source":"Bing","tourism":"alpine_hut","id":158043913}},{"type":"Feature","geometry":{"type":"Point","coordinates":[1.3064708,42.7038946]},"properties":{"amenity":"shelter","building":"yes","capacity":"40","drinking_water":"yes","ele":"2240","email":"certascan.refugi@feec.cat","fee":"yes","name":"Refugi de Certascan","operator":"Federacio d'Entitats Excursionistes de Catalunya","phone":"+34 973621389","reservation":"recommended","shower":"yes","start_date":"25/09/1988","toilets":"yes","tourism":"alpine_hut","website":"http://www.certascan.com","wikidata":"Q11945076","wikipedia":"ca:Refugi de Certascan","winter_room":"20","id":173110833}},{"type":"Feature","geometry":{"type":"Point","coordinates":[0.7681828,42.6152621]},"properties":{"building":"yes","capacity":"36","ele":"1555","fee":"yes","name":"Refugi de Conangles","operator":"Conselh Generau d’Aran","phone":"+34 696 649 871","reservation":"recommended","shower":"yes","toilets":"yes","tourism":"alpine_hut","website":"info@eraportadaran.com","winter_room":"no","id":188492298}},{"type":"Feature","geometry":{"type":"Point","coordinates":[-0.288841,42.8582075]},"properties":{"beds":"60","building":"yes","ele":"2072","name":"Refuge De Larribet","operator":"Club Alpin Français","phone":"+33 9 88 66 61 22","tourism":"alpine_hut","website":"http://refugedelarribet.ffcam.fr/","id":193021745}},{"type":"Feature","geometry":{"type":"Point","coordinates":[1.5641344,42.6226064]},"properties":{"amenity":"shelter","building":"yes","ele":"1980","email":"refugidesorteny@gmail.com","fireplace":"yes","name":"Refugi Borda de Sorteny","phone":"(+376) 846446","shelter_type":"weather_shelter","tourism":"alpine_hut","website":"https://www.refugisorteny.com/","id":206379041}},{"type":"Feature","geometry":{"type":"Point","coordinates":[2.5485504,42.5017311]},"properties":{"building":"apartments","fee":"yes","internet_access":"yes","name":"Gîte refuge de Batère","payment:cash":"yes","reservation":"recommended","source":"bing;local knowledge","tourism":"alpine_hut","website":"http://www.refugedebatere.fr/","id":206502862}},{"type":"Feature","geometry":{"type":"Point","coordinates":[-0.7415082,42.975761]},"properties":{"building":"house","tourism":"alpine_hut","id":216062330}},{"type":"Feature","geometry":{"type":"Point","coordinates":[-0.7493275,42.9783237]},"properties":{"building":"yes","name":"Refuge Jeandel","note":"181","tourism":"alpine_hut","id":216062337}},{"type":"Feature","geometry":{"type":"Point","coordinates":[-0.1242092,42.7794007]},"properties":{"beds":"58","building":"yes","ele":"2651","name":"Refuge de Bayssellance","operator":"Club Alpin Français","phone":"+33 9 74 77 66 52","tourism":"alpine_hut","website":"https://refugebayssellance.ffcam.fr/","wikidata":"Q3423105","wikipedia":"fr:Refuge Bayssellance","id":216881547}},{"type":"Feature","geometry":{"type":"Point","coordinates":[0.6422021,42.6996191]},"properties":{"beds":"16","building":"yes","ele":"2249","name":"REFUGE DE VÉNASQUE","operator":"Club Alpin Français","phone":"+33 9 87 88 14 69","tourism":"alpine_hut","website":"http://refugedevenasque.ffcam.fr/","wikidata":"Q3423185","wikipedia":"fr:Refuge de Vénasque","id":219456590}},{"type":"Feature","geometry":{"type":"Point","coordinates":[0.6508026,42.669333]},"properties":{"addr:city":"Benasque","addr:postcode":"22440","building":"yes","capacity":"92","description":"El Refugio de la Renclusa es un refugio de montaña situado en la vertiente norte del macizo de la Maladeta, el más alto de la ladera sur del Pirineo. ","ele":"2138","email":"refugiorenclusa@hotmail.com","internet_access":"no","name":"Refugio de la Renclusa","name:ca":"Refugi de la Renclusa","name:en":"Renclusa Refuge","name:es":"Refugio de la Renclusa","name:fr":"Refuge de la Rencluse","operator":"FAM","phone":"+974 344 646","shower":"yes","tourism":"alpine_hut","website":"https://www.alberguesyrefugios.com/larenclusa/","wikidata":"Q390006","wikipedia":"es:Refugio de la Renclusa","id":220270171}},{"type":"Feature","geometry":{"type":"Point","coordinates":[-0.6156739,42.8406402]},"properties":{"building":"yes","capacity":"45","ele":"1986","name":"Refuge d'Arlet","note":"24","source":"Bing","tourism":"alpine_hut","id":228356353}},{"type":"Feature","geometry":{"type":"Point","coordinates":[-0.6422645,42.927855]},"properties":{"building":"yes","name":"Gîte d'Etape du Lauzart","source":"cadastre-dgi-fr source : Direction Générale des Finances Publiques - Cadastre. Mise à jour : 2013","tourism":"alpine_hut","id":228377429}},{"type":"Feature","geometry":{"type":"Point","coordinates":[-0.6352395,42.9342205]},"properties":{"building":"yes","name":"Maison de la Montagne","source":"cadastre-dgi-fr source : Direction Générale des Finances Publiques - Cadastre. Mise à jour : 2013","tourism":"alpine_hut","id":228377432}},{"type":"Feature","geometry":{"type":"Point","coordinates":[-0.9304934,42.9767036]},"properties":{"building":"yes","name":"Cayolar de Pista Pékoa","source":"cadastre-dgi-fr source : Direction Générale des Finances Publiques - Cadastre. Mise à jour : 2013","tourism":"alpine_hut","id":232839372}},{"type":"Feature","geometry":{"type":"Point","coordinates":[-0.9441334,42.9771101]},"properties":{"building":"yes","name":"Cayolar d'Ardanepekoa","source":"cadastre-dgi-fr source : Direction Générale des Finances Publiques - Cadastre. Mise à jour : 2013","tourism":"alpine_hut","id":232839721}},{"type":"Feature","geometry":{"type":"Point","coordinates":[-0.9403428,42.9672085]},"properties":{"alt_name":"Abri d Ardane Gagnekoa - pays basque est","building":"yes","name":"Ardane Gaïnekoa","note":"22","source":"cadastre-dgi-fr source : Direction Générale des Finances Publiques - Cadastre. Mise à jour : 2013","tourism":"alpine_hut","id":232839956}},{"type":"Feature","geometry":{"type":"Point","coordinates":[2.4650413,42.5343494]},"properties":{"beds":"105","building":"yes","ele":"2148","name":"Refuge des Cortalets","operator":"Club Alpin Français","phone":"+33 4 68 96 36 19","source":"Association \"Refuges et cabanes des Pyrénées\"","tourism":"alpine_hut","website":"http://refugedescortalets.ffcam.fr/","wikidata":"Q3423223","id":242517594}},{"type":"Feature","geometry":{"type":"Point","coordinates":[0.920646,42.6242508]},"properties":{"building":"yes","capacity":"60","drinking_water":"yes","ele":"2135","fee":"yes","name":"Refugi de Colomèrs","operator":"Conselh Generau d’Aran","phone":"+34 973253008","reservation":"recommended","shower":"yes","toilets":"yes","tourism":"alpine_hut","website":"https://www.refugicolomers.com/","wikidata":"Q18006175","wikipedia":"ca:Refugi de Colomers","id":260506640}},{"type":"Feature","geometry":{"type":"Point","coordinates":[0.3772392,42.6606761]},"properties":{"building":"yes","ele":"1760","email":"refugio@viados.es","fax":"+34 669 23 00 78","name":"Refugio de Biadós / Viadós","operator":"FAM","phone":"+34 974 341 613","tourism":"alpine_hut","id":290964423}},{"type":"Feature","geometry":{"type":"Point","coordinates":[-0.4912095,42.8483984]},"properties":{"name":"Refuge d'Ayous","reservation":"recommended","tourism":"alpine_hut","id":297024115}},{"type":"Feature","geometry":{"type":"Point","coordinates":[-0.4269448,42.8355064]},"properties":{"beds":"45","building":"yes","ele":"2032","name":"Refuge de Pombie","operator":"Club Alpin Français","phone":"+33 5 59 05 31 78","tourism":"alpine_hut","website":"https://refugedepombie.ffcam.fr/","wikidata":"Q3423177","wikipedia":"fr:Refuge de Pombie","id":297038703}},{"type":"Feature","geometry":{"type":"Point","coordinates":[-0.3831029,42.8355435]},"properties":{"building":"yes","description":"Abri adossé à un gros rocher, qui peut accueillir quelques randonneurs, mais très humide.","ele":"1400","name":"Cabane du Caillou de Soques","tourism":"alpine_hut","id":300925780}},{"type":"Feature","geometry":{"type":"Point","coordinates":[-0.3291778,42.8460465]},"properties":{"beds":"28","building":"yes","ele":"2265","name":"Refuge d'Arrémoulit","name:fr":"Refuge d'Arrémoulit  2265mtrs","operator":"Club Alpin Français","phone":"+33 5 59 05 31 79","tourism":"alpine_hut","website":"https://refugedarremoulit.ffcam.fr/","wikidata":"Q3423123","wikipedia":"fr:Refuge d'Arrémoulit","id":300925781}},{"type":"Feature","geometry":{"type":"Point","coordinates":[0.5081287,42.7038331]},"properties":{"beds":"80","building":"yes","ele":"2570","name":"Refuge du Portillon","operator":"Club Alpin Français","phone":"+33 5 61 79 38 15","tourism":"alpine_hut","website":"http://refugeduportillon.ffcam.fr/","id":326817179}},{"type":"Feature","geometry":{"type":"Point","coordinates":[2.2577123,42.4197495]},"properties":{"building":"yes","ele":"2236","name":"Refugi d'Ulldeter","note":"850","phone":"+34 619514159","source":"FEEC (Federació d'Entitats Excursionistes de Catalunya)","tourism":"alpine_hut","website":"http://ulldeter.es/","wikipedia":"ca:Refugi d'Ulldeter","id":337773320}},{"type":"Feature","geometry":{"type":"Point","coordinates":[1.8997416,42.5740663]},"properties":{"building":"yes","capacity":"8","name":"Refuge de la Cabane des Ingénieurs de Lanoux","ref":"357","source":"Association \"Refuges et cabanes des Pyrénées\"","tourism":"alpine_hut","id":364738960}},{"type":"Feature","geometry":{"type":"Point","coordinates":[0.9632831,42.6210568]},"properties":{"access":"yes","building":"yes","capacity":"28","ele":"2298","fee":"yes","internet_access":"wlan","name":"Refugi de Saboredo","phone":"+34 661357716","shower":"yes","toilets":"yes","tourism":"alpine_hut","website":"https://www.refusaboredo.com","wikidata":"Q11945089","wikipedia":"ca:Refugi de Saboredo","winter_room":"yes","id":401596955}},{"type":"Feature","geometry":{"type":"Point","coordinates":[2.4451054,42.5038806]},"properties":{"building":"yes","name":"Refuge Arago","note":"19","shelter_type":"weather_shelter","source":"Association \"Refuges et cabanes des Pyrénées\"","tourism":"alpine_hut","id":540169410}},{"type":"Feature","geometry":{"type":"Point","coordinates":[2.4129864,42.4761862]},"properties":{"beds":"20","building":"yes","ele":"2261","name":"REFUGE DE PLA GUILLEM","operator":"Club Alpin Français","tourism":"alpine_hut","website":"http://refugeplaguillem.ffcam.fr/","id":757545149}},{"type":"Feature","geometry":{"type":"Point","coordinates":[0.0401938,42.6976464]},"properties":{"beds":"12","building":"yes","description":"Número de camas:  12. Ddormitorios:  1. Comodidad general: 12 camas con colchón y mantas. Sala común con dos mesas de madera.Estufa en la sala común, hachas y sierras. Mucha madera, escondida debajo de las literas.Sin agua corriente. Radio de emergencia","ele":"2666","name":"Refuge de Tuquerouye","operator":"Club Alpin Français","tourism":"alpine_hut","website":"http://refugetuquerouye.ffcam.fr/","wikidata":"Q3423182","wikipedia":"fr:Refuge de Tuquerouye","id":757649291}}]}