{"type":"FeatureCollection","features":[{"type":"Feature","geometry":{"type":"Point","coordinates":[-0.6350118,42.9340436]},"properties":{"name":"Epicerie","shop":"convenience","id":399589356}},{"type":"Feature","geometry":{"type":"Point","coordinates":[3.1278173,42.4821305]},"properties":{"name":"Alimentation St. Sebastien","shop":"convenience","id":805019423}},{"type":"Feature","geometry":{"type":"Point","coordinates":[2.0775044,42.5032676]},"properties":{"name":"Blanc","shop":"convenience","id":1304546746}},{"type":"Feature","geometry":{"type":"Point","coordinates":[2.6388602,42.4631544]},"properties":{"amenity":"fuel","brand":"Total","brand:wikidata":"Q154037","brand:wikipedia":"fr:Total (entreprise)","compressed_air":"yes","fuel:diesel":"yes","fuel:e10":"yes","fuel:e85":"yes","fuel:octane_98":"yes","hgv:lanes":"yes","name":"Total","opening_hours":"24/7","ref:FR:prix-carburants":"66510001","shop":"convenience","source":"Ministère de l'Economie, de l'Industrie et du Numérique - 03/2020","vending":"fuel","vending_machine":"fuel","id":1339397715}},{"type":"Feature","geometry":{"type":"Point","coordinates":[3.1286278,42.4819663]},"properties":{"addr:housenumber":"1","addr:street":"Rue Saint-Pierre","description":"Produits Catalans et anchois Roch","name":"Roussillon & co","shop":"convenience","survey:date":"2017-07-05","id":1388319052}},{"type":"Feature","geometry":{"type":"Point","coordinates":[-0.5304205,42.7880299]},"properties":{"shop":"convenience","id":1670697942}},{"type":"Feature","geometry":{"type":"Point","coordinates":[-0.5303873,42.7889125]},"properties":{"shop":"convenience","id":1670705367}},{"type":"Feature","geometry":{"type":"Point","coordinates":[-1.5188815,43.1448103]},"properties":{"addr:city":"Elizondo","addr:postcode":"31700","addr:street":"Jaime Urrutia kalea","name":"Adela","shop":"convenience","id":1676008161}},{"type":"Feature","geometry":{"type":"Point","coordinates":[-1.7707726,43.3476845]},"properties":{"description":"Produits biologiques","organic":"only","shop":"convenience","id":1791438878}},{"type":"Feature","geometry":{"type":"Point","coordinates":[-1.7739221,43.3718962]},"properties":{"addr:postcode":"64700","brand":"Carrefour Express","brand:wikidata":"Q2940190","brand:wikipedia":"fr:Carrefour Express","name":"Carrefour Express","shop":"convenience","id":1791452339}},{"type":"Feature","geometry":{"type":"Point","coordinates":[-1.7733956,43.3722972]},"properties":{"addr:city":"Hendaye","addr:postcode":"64700","addr:street":"Boulevard du Général Leclerc","brand":"Casino Shop","brand:wikidata":"Q89029601","name":"Casino Shop","operator":"Casino","shop":"convenience","id":1791455501}},{"type":"Feature","geometry":{"type":"Point","coordinates":[-1.7844199,43.3712344]},"properties":{"brand":"Proxi","brand:wikidata":"Q3408522","brand:wikipedia":"fr:Proxi","name":"Proxi","shop":"convenience","id":4107801754}},{"type":"Feature","geometry":{"type":"Point","coordinates":[2.1138969,42.5004138]},"properties":{"brand":"Utile","brand:wikidata":"Q2529029","name":"Utile","shop":"convenience","id":4344071155}},{"type":"Feature","geometry":{"type":"Point","coordinates":[-0.0096002,42.7329512]},"properties":{"addr:city":"Gavarnie, Gavarnie-Gèdre","addr:postcode":"65120","addr:street":"Rue centrale","brand":"Vival","brand:wikidata":"Q7937525","brand:wikipedia":"en:Vival (shop)","name":"Vival","opening_hours:covid19":"open","phone":"+33 5 62 92 46 08","shop":"convenience","wheelchair":"yes","wheelchair:description":"Entrée sans marche avec rampe. [En: Step-free entrance with ramp.]","id":5198695465}},{"type":"Feature","geometry":{"type":"Point","coordinates":[2.1019801,42.476198]},"properties":{"shop":"convenience","id":6186448306}},{"type":"Feature","geometry":{"type":"Point","coordinates":[3.1278025,42.4822373]},"properties":{"addr:housenumber":"20","addr:postcode":"66650","addr:street":"Rue Saint-Sébastien","name":"Vinaigrerie La Guinelle","opening_hours":"Mo-Su 09:30-12:30, 15:00-19:00","operator":"Nathalie Herre-Leforts","shop":"convenience","website":"http://www.levinaigre.com","id":6320237485}},{"type":"Feature","geometry":{"type":"Point","coordinates":[-1.0351878,43.0365249]},"properties":{"shop":"convenience","id":6831613622}},{"type":"Feature","geometry":{"type":"Point","coordinates":[-1.4267907,43.0976163]},"properties":{"building":"yes","name":"Alimentation","shop":"convenience","id":455030561}}]}