{"type":"FeatureCollection","features":[{"type":"Feature","geometry":{"type":"Point","coordinates":[-1.7983931,43.3696369]},"properties":{"addr:city":"Hondarribia","addr:country":"ES","addr:housenumber":"25","addr:street":"Donostia kalea","name":"Super Sokoa","shop":"supermarket","id":479837121}},{"type":"Feature","geometry":{"type":"Point","coordinates":[3.1288681,42.4803929]},"properties":{"brand":"Carrefour Express","brand:wikidata":"Q2940190","brand:wikipedia":"fr:Carrefour Express","name":"Carrefour Express","opening_hours":"Mo-Sa 07:00-20:00; Su 07:00-13:00, 16:00-20:00","shop":"supermarket","survey:date":"2017-06-27","id":566450901}},{"type":"Feature","geometry":{"type":"Point","coordinates":[1.7327237,42.5435488]},"properties":{"addr:city":"Pas de la Casa","addr:housenumber":"25","addr:postcode":"AD200","addr:street":"Avinguda del Consell General","name":"Maxi Mercat","phone":"+376 855338","shop":"supermarket","website":"https://www.hiperpas.com/","wheelchair":"yes","id":690708590}},{"type":"Feature","geometry":{"type":"Point","coordinates":[1.7354792,42.543212]},"properties":{"name":"Hiper Pas IV","shop":"supermarket","id":690708612}},{"type":"Feature","geometry":{"type":"Point","coordinates":[1.7347874,42.5425697]},"properties":{"name":"Pic Mari","shop":"supermarket","id":690708663}},{"type":"Feature","geometry":{"type":"Point","coordinates":[1.7321279,42.5416228]},"properties":{"brand":"Spar","brand:wikidata":"Q610492","name":"Spar","shop":"supermarket","id":690734633}},{"type":"Feature","geometry":{"type":"Point","coordinates":[3.1288184,42.4815399]},"properties":{"brand":"Franprix","brand:wikidata":"Q2420096","brand:wikipedia":"fr:Franprix","name":"Supermarché Franprix","operator":"G20","shop":"supermarket","source":"cadastre-dgi-fr source : Direction Générale des Impôts - Cadastre. Mise à jour : 2010","survey:date":"2017-07-05","id":803661718}},{"type":"Feature","geometry":{"type":"Point","coordinates":[-1.6898973,43.3110141]},"properties":{"name":"Linge maison","shop":"supermarket","id":1412955871}},{"type":"Feature","geometry":{"type":"Point","coordinates":[-1.7738182,43.3532937]},"properties":{"brand":"Intermarché","brand:wikidata":"Q3153200","brand:wikipedia":"fr:Intermarché","name":"Intermarché","operator":"Groupement des Mousquetaires","shop":"supermarket","id":1597958988}},{"type":"Feature","geometry":{"type":"Point","coordinates":[-1.516194,43.1465852]},"properties":{"addr:street":"Calle Santiago","brand":"Eroski","brand:wikidata":"Q1361349","brand:wikipedia":"en:Eroski","name":"Eroski","shop":"supermarket","id":1675984219}},{"type":"Feature","geometry":{"type":"Point","coordinates":[-1.5262121,43.1384372]},"properties":{"brand":"BM","brand:wikidata":"Q62073462","name":"BM","shop":"supermarket","id":1676797160}},{"type":"Feature","geometry":{"type":"Point","coordinates":[-1.5209309,43.142555]},"properties":{"brand":"Dia","brand:wikidata":"Q925132","brand:wikipedia":"es:Supermercados DIA","name":"Dia","shop":"supermarket","id":1676803559}},{"type":"Feature","geometry":{"type":"Point","coordinates":[-1.792945,43.365555]},"properties":{"name":"Solbes","operator":"Solbes Gourmet, S.L.","shop":"supermarket","id":2296077070}},{"type":"Feature","geometry":{"type":"Point","coordinates":[-1.7648984,43.3382541]},"properties":{"shop":"supermarket","id":2428257961}},{"type":"Feature","geometry":{"type":"Point","coordinates":[-0.7444567,42.9772933]},"properties":{"shop":"supermarket","wheelchair":"yes","id":3370943799}},{"type":"Feature","geometry":{"type":"Point","coordinates":[-1.7594395,43.3433398]},"properties":{"name":"Peio","shop":"supermarket","id":4811200739}},{"type":"Feature","geometry":{"type":"Point","coordinates":[0.2088582,42.6620417]},"properties":{"name":"Supermercado Mazcaray","opening_hours":"Mo-Su 09:00-21:00","shop":"supermarket","id":5058855576}},{"type":"Feature","geometry":{"type":"Point","coordinates":[2.0616322,42.5141438]},"properties":{"addr:housenumber":"313","addr:postcode":"66210","addr:street":"Route de la Forêt","brand":"Biocoop","brand:wikidata":"Q2904039","brand:wikipedia":"fr:Biocoop","bulk_purchase":"yes","contact:website":"https://www.bioteafull.fr/","name":"Biocoop","organic":"only","shop":"supermarket","id":5194955598}},{"type":"Feature","geometry":{"type":"Point","coordinates":[1.7328958,42.5424683]},"properties":{"name":"CENTRAL III","shop":"supermarket","id":5325449420}},{"type":"Feature","geometry":{"type":"Point","coordinates":[1.733519,42.5430107]},"properties":{"name":"PETIT PREU","shop":"supermarket","id":5325452691}},{"type":"Feature","geometry":{"type":"Point","coordinates":[1.7345185,42.542405]},"properties":{"brand":"Caprabo","brand:wikidata":"Q1980781","brand:wikipedia":"ca:Caprabo","name":"Caprabo","opening_hours":"Mo-Fr 08:30-20:30; Su 08:30-14:00; Su 16:30-20:00","shop":"supermarket","id":5325452700}},{"type":"Feature","geometry":{"type":"Point","coordinates":[1.7346848,42.5424386]},"properties":{"name":"RECORD III","shop":"supermarket","id":5325452708}},{"type":"Feature","geometry":{"type":"Point","coordinates":[-1.7933742,43.3665314]},"properties":{"shop":"supermarket","id":5660879135}},{"type":"Feature","geometry":{"type":"Point","coordinates":[2.6688641,42.4734185]},"properties":{"addr:city":"Amélie-les-Bains-Palalda","addr:housenumber":"24","addr:postcode":"66110","addr:street":"Avenue du Vallespir","alt_name":"Alimentation Costa","brand":"Proxi","brand:wikidata":"Q3408522","brand:wikipedia":"fr:Proxi","name":"Proxi","phone":"+33 9 65 22 16 09","shop":"supermarket","id":5773723734}},{"type":"Feature","geometry":{"type":"Point","coordinates":[-1.7708754,43.3480526]},"properties":{"brand":"La Vie Claire","brand:wikidata":"Q3213589","brand:wikipedia":"fr:La Vie claire","bulk_purchase":"yes","name":"La Vie Claire","organic":"only","shop":"supermarket","website":"https://www.lavieclaire.com/magasin-bio/hendaye.html","id":5844729828}},{"type":"Feature","geometry":{"type":"Point","coordinates":[-1.6876271,43.3097356]},"properties":{"name":"Venta Biok","shop":"supermarket","id":6601049857}},{"type":"Feature","geometry":{"type":"Point","coordinates":[-1.6906096,43.3112061]},"properties":{"name":"Biok 37","shop":"supermarket","id":7159713644}},{"type":"Feature","geometry":{"type":"Point","coordinates":[-1.6841331,43.3096128]},"properties":{"name":"Venta Gorria","shop":"supermarket","id":7159713646}},{"type":"Feature","geometry":{"type":"Point","coordinates":[-1.6879767,43.3098744]},"properties":{"name":"Venta Peio","shop":"supermarket","id":7159713650}},{"type":"Feature","geometry":{"type":"Point","coordinates":[-1.6882127,43.3099251]},"properties":{"name":"Venta Peio 2","shop":"supermarket","id":7159713651}},{"type":"Feature","geometry":{"type":"Point","coordinates":[-1.6879847,43.310335]},"properties":{"name":"La Venta Des Pottoks","shop":"supermarket","id":7159713652}},{"type":"Feature","geometry":{"type":"Point","coordinates":[-1.6892829,43.3103647]},"properties":{"name":"Venta Biok","shop":"supermarket","id":7159713656}},{"type":"Feature","geometry":{"type":"Point","coordinates":[-1.6896651,43.3105257]},"properties":{"name":"Beola Etxea","shop":"supermarket","id":7159713657}},{"type":"Feature","geometry":{"type":"Point","coordinates":[-1.6895967,43.3108595]},"properties":{"name":"Venta Peio 3","shop":"supermarket","id":7159713658}},{"type":"Feature","geometry":{"type":"Point","coordinates":[-1.6898247,43.3108946]},"properties":{"name":"Aguirre","shop":"supermarket","id":7159713659}},{"type":"Feature","geometry":{"type":"Point","coordinates":[-1.68994,43.3107453]},"properties":{"name":"Venta Manolo","shop":"supermarket","id":7159713660}},{"type":"Feature","geometry":{"type":"Point","coordinates":[-1.5211206,43.1426736]},"properties":{"brand":"Dia","brand:wikidata":"Q925132","brand:wikipedia":"es:Supermercados DIA","name":"Dia","shop":"supermarket","id":7216396761}},{"type":"Feature","geometry":{"type":"Point","coordinates":[1.7324737,42.5421984]},"properties":{"name":"Fran per","shop":"supermarket","id":7282465469}},{"type":"Feature","geometry":{"type":"Point","coordinates":[1.7326016,42.5422262]},"properties":{"name":"Hiper pas","shop":"supermarket","id":7282470378}},{"type":"Feature","geometry":{"type":"Point","coordinates":[1.7321299,42.5423243]},"properties":{"name":"Hiper pas","shop":"supermarket","id":7282474834}},{"type":"Feature","geometry":{"type":"Point","coordinates":[1.7325436,42.5417783]},"properties":{"shop":"supermarket","id":7296670777}},{"type":"Feature","geometry":{"type":"Point","coordinates":[-1.7938626,43.3618248]},"properties":{"addr:city":"Hondarribia","addr:country":"ES","addr:housenumber":"4","addr:postcode":"20280","addr:street":"Minasoroeta kalea","b5m:id":"D_239684","b5m:url":"http://b5m.gipuzkoa.net/b5map/r1/eu/mapa/lekutu/D_239684","b5m:urlOrto":"http://b5m.gipuzkoa.net/url5000/index.php?id=D_239684&lengua=1&actu=0&categoria=VITO_FOTO","brand":"Eroski","brand:wikidata":"Q1361349","brand:wikipedia":"en:Eroski","building":"yes","name":"Eroski","shop":"supermarket","source":"b5m","id":40070436}},{"type":"Feature","geometry":{"type":"Point","coordinates":[3.1204351,42.4761628]},"properties":{"brand":"Carrefour Market","brand:wikidata":"Q2689639","brand:wikipedia":"fr:Carrefour Market","building":"retail","name":"Carrefour Market","operator":"Carrefour","shop":"supermarket","source":"cadastre-dgi-fr source : Direction Générale des Impôts - Cadastre. Mise à jour : 2010","id":64787428}},{"type":"Feature","geometry":{"type":"Point","coordinates":[-1.774771,43.3555939]},"properties":{"brand":"Carrefour Market","brand:wikidata":"Q2689639","brand:wikipedia":"fr:Carrefour Market","building":"commercial","name":"Carrefour Market","operator":"Carrefour","shop":"supermarket","source":"cadastre-dgi-fr source : Direction Générale des Impôts - Cadastre. Mise à jour : 2010","id":72066909}},{"type":"Feature","geometry":{"type":"Point","coordinates":[-1.7711229,43.3489808]},"properties":{"brand":"Lidl","brand:wikidata":"Q151954","brand:wikipedia":"fr:Lidl","building":"retail","name":"Lidl","shop":"supermarket","source":"cadastre-dgi-fr source : Direction Générale des Impôts - Cadastre. Mise à jour : 2010","id":72069507}},{"type":"Feature","geometry":{"type":"Point","coordinates":[2.061782,42.51512]},"properties":{"building":"yes","name":"Casino","operator":"Casino","shop":"supermarket","source":"cadastre-dgi-fr source : Direction Générale des Impôts - Cadastre. Mise à jour : 2012","id":147965812}},{"type":"Feature","geometry":{"type":"Point","coordinates":[-1.7953704,43.367012]},"properties":{"building":"yes","shop":"supermarket","id":158900499}},{"type":"Feature","geometry":{"type":"Point","coordinates":[-1.7617621,43.3427251]},"properties":{"addr:city":"Irun","landuse":"retail","name":"Ventas de Behobia","name:fr":"Ventas de Béhobie","shop":"supermarket","shop_1":"alcohol","shop_2":"beverages","id":483195362}}]}