{"type":"FeatureCollection","features":[{"type":"Feature","geometry":{"type":"Point","coordinates":[1.6388318,42.6184413]},"properties":{"amenity":"shelter","ele":"2218","fireplace":"yes","name":"Refugi de Coms de Jan","name:fr":"Refuge de Coms de Jan - andorre","note":"98","source":"Association \"Refuges et cabanes des Pyrénées\"","tourism":"wilderness_hut","id":899525861}},{"type":"Feature","geometry":{"type":"Point","coordinates":[0.2823593,42.6682349]},"properties":{"description":"Es un refugio de dos compartimentos, ambos con estufa de leña (ojo, sin leña en los alrededores), muy amplio, con mesas y bancos anclados al suelo, dos plantas y con colchonetas en la parte de arriba.  Se trata de un refugio libre. Por favor, CUIDARLO.","name":"Refugio de Urdiceto","tourism":"wilderness_hut","website":"https://www.walkaholic.me/es/refugio/espana/aragon/huesca/319-refugio-de-urdiceto","id":963811567}},{"type":"Feature","geometry":{"type":"Point","coordinates":[1.1891325,42.7059365]},"properties":{"amenity":"shelter","capacity":"18","description":"Refugio prefabricado de aluminio. Agua en el torrente, lugar para cocinar, literas, colchones, mantas, material de salvamento","ele":"2287","name":"Refugi Mont-roig “Enric Pujol”","shelter_type":"basic_hut","tourism":"wilderness_hut","website":"https://www.feec.cat/refugi/refugi-mont-roig-enric-pujol/","wikidata":"Q11945060","wikipedia":"ca:Refugi Enric Pujol","id":968205339}},{"type":"Feature","geometry":{"type":"Point","coordinates":[1.6723769,42.6114505]},"properties":{"ele":"2295","fireplace":"yes","name":"Refugi de Cabana Sorda","note":"303","source":"Association \"Refuges et cabanes des Pyrénées\"","tourism":"wilderness_hut","wikidata":"Q3931658","id":2304249704}},{"type":"Feature","geometry":{"type":"Point","coordinates":[1.0421079,42.6966391]},"properties":{"amenity":"shelter","building":"yes","capacity":"12","ele":"2199","name":"Refugi Airoto-Gràcia","shelter_type":"basic_hut","tourism":"wilderness_hut","website":"http://www.uecgracia.cat/avantatges/refugis-uec.htm","wikidata":"Q18006167","wikipedia":"ca:Refugi d'Airoto","id":5082444418}},{"type":"Feature","geometry":{"type":"Point","coordinates":[1.2149039,42.7046955]},"properties":{"capacity":"8","description":"oven for cooking and heating. mattresses.","name":"Refugio «Lo Fangassal»","shelter_type":"basic_hut","tourism":"wilderness_hut","id":6720524170}},{"type":"Feature","geometry":{"type":"Point","coordinates":[1.9006688,42.5612165]},"properties":{"tourism":"wilderness_hut","id":6789026872}},{"type":"Feature","geometry":{"type":"Point","coordinates":[0.3696356,42.6587601]},"properties":{"addr:city":"Gistaín","addr:postcode":"22367","addr:street":"Valle de Gistaín","name":"Refugio Els Plans","tourism":"wilderness_hut","id":6906339352}},{"type":"Feature","geometry":{"type":"Point","coordinates":[-1.2886213,43.0373091]},"properties":{"building":"yes","name":"Izandorre","note":"SOS service","operator":"Gobierno de Navarra","tourism":"wilderness_hut","id":179292975}},{"type":"Feature","geometry":{"type":"Point","coordinates":[-1.1436529,43.0106354]},"properties":{"building":"yes","capacity":"15","name":"Egurgiko aterpea","name:eu":"Egurgiko aterpea","name:fr":"Refuge d'Egurguy","tourism":"wilderness_hut","id":207442622}},{"type":"Feature","geometry":{"type":"Point","coordinates":[0.4373976,42.7034767]},"properties":{"description":"10 places maxi","ele":"2020","name":"Refuge de Prat-Cazeneuve ou d'Aygues Tortes","shelter_type":"hut","tourism":"wilderness_hut","id":316449562}},{"type":"Feature","geometry":{"type":"Point","coordinates":[0.3610503,42.6738893]},"properties":{"area":"yes","description":"El Refugio de Tabernés es un refugio de acceso libre, no guardado, de propiedad municipal. Está bien mantenido y el acceso es cómodo, pudiendo llegar con el vehículo hasta la misma puerta. Capacidad 30 personas.","name":"Refugio de Tabernes","tourism":"wilderness_hut","id":374059132}},{"type":"Feature","geometry":{"type":"Point","coordinates":[-1.6329924,43.3182984]},"properties":{"building":"yes","capacity":"2","name":"Arrano Xola","tourism":"wilderness_hut","id":509501441}}]}